#aV2010  8 29  0  0   .00000000      96 DD+AD WGS84 FIT  NGA
## 1599       .00000000   900.00000000 55437  .0000000000000
+   32     1  2  3  4  5  6  7  8  9 10 11 12 13 14 15 16 17
+         18 19 20 21 22 23 24 25 26 27 28 29 30 31 32  0  0
+          0  0  0  0  0  0  0  0  0  0  0  0  0  0  0  0  0
+          0  0  0  0  0  0  0  0  0  0  0  0  0  0  0  0  0
+          0  0  0  0  0  0  0  0  0  0  0  0  0  0  0  0  0
++         0  0  0  0  0  0  0  0  0  0  0  0  0  0  0  0  0
++         0  0  0  0  0  0  0  0  0  0  0  0  0  0  0  0  0
++         0  0  0  0  0  0  0  0  0  0  0  0  0  0  0  0  0
++         0  0  0  0  0  0  0  0  0  0  0  0  0  0  0  0  0
++         0  0  0  0  0  0  0  0  0  0  0  0  0  0  0  0  0
%c cc cc ccc ccc cccc cccc cccc cccc ccccc ccccc ccccc ccccc
%c cc cc ccc ccc cccc cccc cccc cccc ccccc ccccc ccccc ccccc
%f  0.0000000  0.000000000  0.00000000000  0.000000000000000
%f  0.0000000  0.000000000  0.00000000000  0.000000000000000
%i    0    0    0    0      0      0      0      0         0
%i    0    0    0    0      0      0      0      0         0
/*      NGA, ST. LOUIS,MO.                                  
/*   EPHEMERIS COMPUTED FROM  3 DAYS OF DATA                
/* CCCCCCCCCCCCCCCCCCCCCCCCCCCCCCCCCCCCCCCCCCCCCCCCCCCCCCCCC
/* CCCCCCCCCCCCCCCCCCCCCCCCCCCCCCCCCCCCCCCCCCCCCCCCCCCCCCCCC
*  2010  8 29 18 15   .00000000                                                 
P  1  26196.387091   4697.970957  -1015.052050   -157.057500                    
V  1  -1513.624745   2359.163623 -31741.586240      -.039448                    
P  2 -20142.905249   7923.844143 -15079.766178    284.541852                    
V  2   9725.869759 -16998.981193 -22394.438059       .028761                    
P  3  15444.265463  -4222.161814  20836.602865    601.419210                    
V  3  12611.648329  24386.033357  -3989.324448       .051337                    
P  4 -16156.884705  -4322.189964 -20877.104361    157.555463                    
V  4  15878.832508 -20742.459411  -7705.965818       .086753                    
P  5 -24067.653412   3900.544094  10635.094732    -29.844621                    
V  5 -12962.055108  -4516.834702 -27559.795867      -.046929                    
P  6  17204.191534   1659.017453  20375.608754    514.610473                    
V  6   9469.928828  23754.668354  -9844.260749      -.149630                    
P  7    735.167446 -19848.329501  17528.991641     -1.943896                    
V  7  15306.304716 -16323.187019 -19300.672980       .000187                    
P  8  -9322.155248 -11166.966401  22187.451094      6.528395                    
V  8  19487.274972 -20294.541374  -2553.305183       .000877                    
P  9 -15079.458591  21809.790830  -1864.316683     27.276431                    
V  9  -2736.642384     46.621138  32112.181442       .022778                    
P 10 -25984.413146  -6097.547994  -2000.797728    -50.900916                    
V 10   2749.551765  -2334.446630 -31193.430272      -.009163                    
P 11   8463.347992 -24761.232917  -3511.217944    -85.891353                    
V 11   6580.647996  -1598.351520  29849.354446      -.026567                    
P 12 -10349.227075  12696.044740 -20838.824406    -78.211831                    
V 12 -26043.104240  -5214.960667   9888.190187       .037894                    
P 13  -4607.003003 -25718.503068  -4765.012247    298.661358                    
V 13   3425.795292   5088.209936 -31718.601226      -.008535                    
P 14  15060.427566  17261.433716 -13412.108826     83.420300                    
V 14   3908.090393  16805.252919  25591.072227       .037855                    
P 15  -9201.259885  14947.137621  19917.071695   -216.683948                    
V 15 -10698.939610 -22974.384123  12432.242480       .055081                    
P 16  26076.268361    864.048345   5740.086869   -103.723639                    
V 16   6675.574476   3399.221555 -30733.143204      -.034671                    
P 17 -14718.484192 -19618.828787 -10355.157378    168.625959                    
V 17  -2256.674856 -13250.393108  27809.492571       .016169                    
P 18  10095.608729  16039.831180  19041.693455     89.930757                    
V 18 -23422.250456  -2709.046624  14546.122607       .022577                    
P 19   9965.028208 -14783.886888  19601.340641    -61.592816                    
V 19   8470.949728  23521.408321  13763.016371      -.030708                    
P 20   9237.396151 -14163.983082 -20600.655135     51.656432                    
V 20  25657.132448   4158.442049   8752.135280      -.003804                    
P 21   3086.331445  18420.432004  19007.238229    -84.469940                    
V 21 -16615.250404  17032.276376 -14700.682924      -.026606                    
P 22  20925.347296  12216.224520  11164.426303    164.174294                    
V 22 -14258.416066    473.456411  26519.525365      -.008960                    
P 23   1734.092807 -22454.037876 -13819.610265    356.290780                    
V 23   8316.780738  15727.248188 -24859.689545      -.017644                    
P 24  20763.850002  -7344.280923  14758.346361    317.043754                    
V 24 -10646.706779  15599.212812  23106.194859       .033895                    
P 25   1587.693353  15456.762499 -21563.017958    -40.480604                    
V 25 -27119.848088  -3398.667426  -4450.300014      -.003018                    
P 26 -13601.903356   4450.985892  21808.488460     -1.348060                    
V 26  -8777.844021 -27636.602613    566.784550      -.067308                    
P 27 -17896.562364  18989.916388   4998.929171    184.139424                    
V 27   1401.612698  -5794.140288  31461.405057       .033949                    
P 28 -18691.344676 -13386.751381  14027.244924     -5.531712                    
V 28  16868.379686   1635.762706  24623.272010       .013217                    
P 29   4772.944296  25526.864387  -5592.557292    145.533318                    
V 29  -4917.668168  -5911.052950 -30670.451657       .027773                    
P 30   3273.398605  15680.477099 -21601.144507    273.743937                    
V 30 -26372.647639  -2450.926278  -5850.472189       .033718                    
P 31  16839.740257   1031.956726 -20355.928645    -13.443988                    
V 31 -15910.005290  20845.619990 -11814.480210       .029800                    
P 32  15922.739927  -9518.780952 -18537.295152    -72.890462                    
V 32  23247.746655   7521.497491  16173.442477      -.089552                    
EOF
